[{"OBJECT_NAME":"STARLINK-35976","OBJECT_ID":"2025-265U","EPOCH":"2026-03-09T21:57:14.393952","MEAN_MOTION":15.27600321,"ECCENTRICITY":0.00014722,"INCLINATION":42.9985,"RA_OF_ASC_NODE":277.0216,"ARG_OF_PERICENTER":268.9183,"MEAN_ANOMALY":91.15,"EPHEMERIS_TYPE":0,"CLASSIFICATION_TYPE":"U","NORAD_CAT_ID":66534,"ELEMENT_SET_NO":999,"REV_AT_EPOCH":1714,"BSTAR":0.00087417326,"MEAN_MOTION_DOT":0.00023886,"MEAN_MOTION_DDOT":0},{"OBJECT_NAME":"CZ-6A DEB","OBJECT_ID":"2022-151EM","EPOCH":"2026-03-09T21:12:10.844640","MEAN_MOTION":15.1479521,"ECCENTRICITY":0.00732342,"INCLINATION":98.809,"RA_OF_ASC_NODE":212.6624,"ARG_OF_PERICENTER":10.5605,"MEAN_ANOMALY":349.714,"EPHEMERIS_TYPE":0,"CLASSIFICATION_TYPE":"U","NORAD_CAT_ID":54413,"ELEMENT_SET_NO":999,"REV_AT_EPOCH":17915,"BSTAR":0.0020661814,"MEAN_MOTION_DOT":0.00041137,"MEAN_MOTION_DDOT":0}]
